BEIDOU-2 IGSO-4         
1 37763U 11038A   26160.68953514  .00000092  00000+0  00000+0 0  9994
2 37763  54.5986 165.7393 0159307 231.3987 202.2417  1.00286741 54575
ASTRA 1N                
1 37775U 11041A   26161.55759796  .00000137  00000+0  00000+0 0  9994
2 37775   0.0838  38.3234 0006193  55.9232  24.6242  1.00272726 44463
BSAT-3C (JCSAT-110R)    
1 37776U 11041B   26160.00721381 -.00000334  00000+0  00000+0 0  9993
2 37776   0.0180 326.2334 0000517 202.1972 201.5180  1.00271328 50387
PAKSAT-1R               
1 37779U 11042A   26161.56132464  .00000171  00000+0  00000+0 0  9995
2 37779   0.6707  84.6600 0003136 347.1020  67.2655  1.00275552 54411
SES-2                   
1 37809U 11049A   26161.53659558 -.00000178  00000+0  00000+0 0  9999
2 37809   0.0482 114.2631 0002762 323.5156 287.2953  1.00270820 53894
ARABSAT-5C              
1 37810U 11049B   26161.34390111  .00000141  00000+0  00000+0 0  9996
2 37810   0.0481 359.3724 0003491 101.7620 301.3938  1.00273874 53963
EUTELSAT 7 WEST A       
1 37816U 11051A   26161.33844109 -.00000043  00000+0  00000+0 0  9997
2 37816   0.0607 357.9212 0004133  94.1975 281.1037  1.00271189 53802
QUETZSAT 1              
1 37826U 11054A   26161.54473245 -.00000224  00000+0  00000+0 0  9994
2 37826   0.0109 350.6565 0002676  92.1674 295.1946  1.00270898 49800
INTELSAT 18 (IS-18)     
1 37834U 11056A   26160.87655971  .00000070  00000+0  00000+0 0  9996
2 37834   0.0170 310.4216 0002098 144.0429 299.3507  1.00272225 53739
EUTELSAT 16A            
1 37836U 11057A   26161.55699128  .00000121  00000+0  00000+0 0  9994
2 37836   0.0422   0.9923 0005907  81.3199  33.0972  1.00271695  7273
VIASAT-1                
1 37843U 11059A   26161.45968543 -.00000006  00000+0  00000+0 0  9996
2 37843   0.0025 352.7214 0002096  91.5564 224.9209  1.00269535 47252
ASIASAT 7               
1 37933U 11069A   26161.63941155 -.00000316  00000+0  00000+0 0  9991
2 37933   0.0176  12.5024 0001353  58.6280 163.5479  1.00268030 44795
BEIDOU-2 IGSO-5         
1 37948U 11073A   26161.28629306 -.00000165  00000+0  00000+0 0  9996
2 37948  47.6920 271.6328 0113711 221.6344 320.2028  1.00274435 53063
LUCH-5A                 
1 37951U 11074B   26161.53169728 -.00000036  00000+0  00000+0 0  9993
2 37951   8.7362  73.9051 0002232  19.4928 163.8859  1.00269771 52987
NIGCOMSAT 1R            
1 38014U 11077A   26161.64015376  .00000162  00000+0  00000+0 0  9997
2 38014   0.0038  78.9828 0002444 271.3612 181.5998  1.00272511 52891
WGS F4 (USA 233)        
1 38070U 12003A   26161.50001450  .00000000  00000+0  00000+0 0  9993
2 38070   0.0207 348.4056 0000717 301.4676 237.4018  1.00268849 44080
SES-4                   
1 38087U 12007A   26161.33558108 -.00000151  00000+0  00000+0 0  9991
2 38087   0.0277  33.7141 0002526  54.1845 269.5983  1.00269984 52159
BEIDOU-2 G5             
1 38091U 12008A   26161.49412115  .00000074  00000+0  00000+0 0  9994
2 38091   3.5559  69.7396 0009265 275.0536 150.6137  1.00270457 52309
MUOS-1                  
1 38093U 12009A   26161.24873492 -.00000113  00000+0  00000+0 0  9994
2 38093   5.4626  47.1626 0058840   1.2915 199.7259  1.00270548 52373
INTELSAT 22 (IS-22)     
1 38098U 12011A   26161.56808466 -.00000041  00000+0  00000+0 0  9996
2 38098   0.0114 332.6438 0001509 101.2304 101.6413  1.00272131  7124
APSTAR-7                
1 38107U 12013A   26161.64616738  .00000000  00000+0  00000+0 0  9991
2 38107   0.0172 313.5060 0002715 138.4604 116.1343  1.00270276 51741
YAHSAT 1B               
1 38245U 12016A   26161.56323131  .00000144  00000+0  00000+0 0  9999
2 38245   0.0932  90.4635 0002534  13.6832  45.1253  1.00268910 45547
AEHF-2 (USA 235)        
1 38254U 12019A   26161.05141402 -.00000121  00000+0  00000+0 0  9991
2 38254   6.6351  57.5422 0002378  11.7025 191.1527  1.00270296  6915
JCSAT-13                
1 38331U 12023A   26161.64578176 -.00000339  00000+0  00000+0 0  9990
2 38331   0.0235  59.8029 0002873  42.0612 153.6322  1.00270919 51476
VINASAT-2               
1 38332U 12023B   26161.64912339 -.00000311  00000+0  00000+0 0  9994
2 38332   0.0141 339.6097 0002282 112.9168 172.0194  1.00270632 46595
NIMIQ 6                 
1 38342U 12026A   26161.53572891 -.00000156  00000+0  00000+0 0  9998
2 38342   0.0333 284.8730 0002603 155.0117 280.7775  1.00271697 50345
ZHONGXING-2A            
1 38352U 12028A   26161.64440556 -.00000276  00000+0  00000+0 0  9998
2 38352   1.4361  83.9698 0003944  40.8055 104.4545  1.00273450 51239
INTELSAT 19 (IS-19)     
1 38356U 12030A   26161.53169728 -.00000039  00000+0  00000+0 0  9999
2 38356   0.0142 330.0554 0002984 117.6834 168.5701  1.00271860 50386
ECHOSTAR 17             
1 38551U 12035A   26161.53252222  .00000000  00000+0  00000+0 0  9990
2 38551   0.0231 348.9988 0001800  90.0006 264.4958  1.00269865 50991
METEOSAT-10 (MSG-3)     
1 38552U 12035B   26161.34000110  .00000011  00000+0  00000+0 0  9999
2 38552   4.6545  61.0471 0001506 332.8996 347.4002  1.00275881 50782
SES-5                   
1 38652U 12036A   26161.34095443  .00000051  00000+0  00000+0 0  9998
2 38652   0.0500 310.7318 0001866 130.5092 305.1935  1.00271636 44386
INTELSAT 20 (IS-20)     
1 38740U 12043A   26161.56739133 -.00000008  00000+0  00000+0 0  9992
2 38740   0.0068 107.3960 0001960  70.9558 353.3520  1.00273748 50686
