OBJECT_NAME,OBJECT_ID,EPOCH,MEAN_MOTION,ECCENTRICITY,INCLINATION,RA_OF_ASC_NODE,ARG_OF_PERICENTER,MEAN_ANOMALY,EPHEMERIS_TYPE,CLASSIFICATION_TYPE,NORAD_CAT_ID,ELEMENT_SET_NO,REV_AT_EPOCH,BSTAR,MEAN_MOTION_DOT,MEAN_MOTION_DDOT
BEIDOU-2 IGSO-4,2011-038A,2026-06-09T16:32:55.836096,1.00286741,.01593078,54.5986,165.7393,231.3987,202.2417,0,U,37763,999,5457,0,.92E-6,0
ASTRA 1N,2011-041A,2026-06-10T13:22:56.463744,1.00272726,.00061939,0.0838,38.3234,55.9232,24.6242,0,U,37775,999,4446,0,.137E-5,0
BSAT-3C (JCSAT-110R),2011-041B,2026-06-09T00:10:23.273184,1.00271328,.00005174,0.0180,326.2334,202.1972,201.5180,0,U,37776,999,5038,0,-.334E-5,0
PAKSAT-1R,2011-042A,2026-06-10T13:28:18.448896,1.00275552,.00031364,0.6707,84.6600,347.1020,67.2655,0,U,37779,999,5441,0,.171E-5,0
SES-2,2011-049A,2026-06-10T12:52:41.858112,1.00270820,.00027621,0.0482,114.2631,323.5156,287.2953,0,U,37809,999,5389,0,-.178E-5,0
ARABSAT-5C,2011-049B,2026-06-10T08:15:13.055904,1.00273874,.00034912,0.0481,359.3724,101.7620,301.3938,0,U,37810,999,5396,0,.141E-5,0
EUTELSAT 7 WEST A,2011-051A,2026-06-10T08:07:21.310176,1.00271189,.00041338,0.0607,357.9212,94.1975,281.1037,0,U,37816,999,5380,0,-.43E-6,0
QUETZSAT 1,2011-054A,2026-06-10T13:04:24.883680,1.00270898,.00026768,0.0109,350.6565,92.1674,295.1946,0,U,37826,999,4980,0,-.224E-5,0
INTELSAT 18 (IS-18),2011-056A,2026-06-09T21:02:14.758944,1.00272225,.00020989,0.0170,310.4216,144.0429,299.3507,0,U,37834,999,5373,0,.7E-6,0
EUTELSAT 16A,2011-057A,2026-06-10T13:22:04.046592,1.00271695,.00059074,0.0422,0.9923,81.3199,33.0972,0,U,37836,999,727,0,.121E-5,0
VIASAT-1,2011-059A,2026-06-10T11:01:56.821152,1.00269535,.00020961,0.0025,352.7214,91.5564,224.9209,0,U,37843,999,4725,0,-.6E-7,0
ASIASAT 7,2011-069A,2026-06-10T15:20:45.157920,1.00268030,.00013534,0.0176,12.5024,58.6280,163.5479,0,U,37933,999,4479,0,-.316E-5,0
BEIDOU-2 IGSO-5,2011-073A,2026-06-10T06:52:15.720384,1.00274435,.01137114,47.6920,271.6328,221.6344,320.2028,0,U,37948,999,5306,0,-.165E-5,0
LUCH-5A,2011-074B,2026-06-10T12:45:38.644992,1.00269771,.00022329,8.7362,73.9051,19.4928,163.8859,0,U,37951,999,5298,0,-.36E-6,0
NIGCOMSAT 1R,2011-077A,2026-06-10T15:21:49.284864,1.00272511,.00024446,0.0038,78.9828,271.3612,181.5998,0,U,38014,999,5289,0,.162E-5,0
WGS F4 (USA 233),2012-003A,2026-06-10T12:00:01.252800,1.00268849,.00007172,0.0207,348.4056,301.4676,237.4018,0,U,38070,999,4408,0,0,0
SES-4,2012-007A,2026-06-10T08:03:14.205312,1.00269984,.00025266,0.0277,33.7141,54.1845,269.5983,0,U,38087,999,5215,0,-.151E-5,0
BEIDOU-2 G5,2012-008A,2026-06-10T11:51:32.067360,1.00270457,.00092653,3.5559,69.7396,275.0536,150.6137,0,U,38091,999,5230,0,.74E-6,0
MUOS-1,2012-009A,2026-06-10T05:58:10.697088,1.00270548,.005884,5.4626,47.1626,1.2915,199.7259,0,U,38093,999,5237,0,-.113E-5,0
INTELSAT 22 (IS-22),2012-011A,2026-06-10T13:38:02.514624,1.00272131,.00015092,0.0114,332.6438,101.2304,101.6413,0,U,38098,999,712,0,-.41E-6,0
APSTAR-7,2012-013A,2026-06-10T15:30:28.861632,1.00270276,.00027151,0.0172,313.5060,138.4604,116.1343,0,U,38107,999,5174,0,0,0
YAHSAT 1B,2012-016A,2026-06-10T13:31:03.185184,1.00268910,.00025349,0.0932,90.4635,13.6832,45.1253,0,U,38245,999,4554,0,.144E-5,0
AEHF-2 (USA 235),2012-019A,2026-06-10T01:14:02.171328,1.00270296,.00023781,6.6351,57.5422,11.7025,191.1527,0,U,38254,999,691,0,-.121E-5,0
JCSAT-13,2012-023A,2026-06-10T15:29:55.544064,1.00270919,.00028737,0.0235,59.8029,42.0612,153.6322,0,U,38331,999,5147,0,-.339E-5,0
VINASAT-2,2012-023B,2026-06-10T15:34:44.260896,1.00270632,.00022825,0.0141,339.6097,112.9168,172.0194,0,U,38332,999,4659,0,-.311E-5,0
NIMIQ 6,2012-026A,2026-06-10T12:51:26.977824,1.00271697,.00026033,0.0333,284.8730,155.0117,280.7775,0,U,38342,999,5034,0,-.156E-5,0
ZHONGXING-2A,2012-028A,2026-06-10T15:27:56.640384,1.00273450,.00039445,1.4361,83.9698,40.8055,104.4545,0,U,38352,999,5123,0,-.276E-5,0
INTELSAT 19 (IS-19),2012-030A,2026-06-10T12:45:38.644992,1.00271860,.0002984,0.0142,330.0554,117.6834,168.5701,0,U,38356,999,5038,0,-.39E-6,0
ECHOSTAR 17,2012-035A,2026-06-10T12:46:49.919808,1.00269865,.00018009,0.0231,348.9988,90.0006,264.4958,0,U,38551,999,5099,0,0,0
METEOSAT-10 (MSG-3),2012-035B,2026-06-10T08:09:36.095040,1.00275881,.00015067,4.6545,61.0471,332.8996,347.4002,0,U,38552,999,5078,0,.11E-6,0
SES-5,2012-036A,2026-06-10T08:10:58.462752,1.00271636,.00018669,0.0500,310.7318,130.5092,305.1935,0,U,38652,999,4438,0,.51E-6,0
INTELSAT 20 (IS-20),2012-043A,2026-06-10T13:37:02.610912,1.00273748,.00019606,0.0068,107.3960,70.9558,353.3520,0,U,38740,999,5068,0,-.8E-7,0
